ONEWEB-0118             
1 47264U 20100G   23340.94652845 -.00000229  00000+0 -67325-3 0  9991
2 47264  87.9002 174.2753 0002086  81.2841 278.8524 13.12443561143622
ONEWEB-0119             
1 47265U 20100H   23340.51769636  .00000085  00000+0  20010-3 0  9990
2 47265  87.9000 174.3989 0001418  89.9767 270.1524 13.12443776143547
ONEWEB-0120             
1 47266U 20100J   23340.92828889  .00000230  00000+0  60327-3 0  9999
2 47266  87.9003 174.3066 0001724  90.3631 269.7695 13.12443550143625
ONEWEB-0121             
1 47267U 20100K   23340.90998504  .00000369  00000+0  99002-3 0  9995
2 47267  87.8999 174.3080 0001279  85.1026 275.0249 13.12447616143532
ONEWEB-0122             
1 47268U 20100L   23340.90509067 -.00001137  00000+0 -31956-2 0  9997
2 47268  87.8997 174.3135 0002070  86.1261 274.0104 13.12455423143448
ONEWEB-0123             
1 47269U 20100M   23340.51927231 -.00000020  00000+0 -90323-4 0  9997
2 47269  87.9004 174.3969 0001515  89.1606 270.9696 13.12444732143535
ONEWEB-0124             
1 47270U 20100N   23341.04181409 -.00000311  00000+0 -89969-3 0  9993
2 47270  87.9016 174.2864 0001124  94.2466 265.8791 13.12440705143489
ONEWEB-0125             
1 47271U 20100P   23341.09265779  .00000236  00000+0  61944-3 0  9999
2 47271  87.8945 174.2377 0001474  72.1195 288.0095 13.12443222143550
